{
  "type": "FeatureCollection",
  "features": [
    {
      "type": "Feature",
      "properties": {
        "norad_id": 66619,
        "name": "STARLINK-35951",
        "group": "last-30-days",
        "lat": 52.220380824318696,
        "lon": -65.30314603273028,
        "alt_km": 401.9604966853958,
        "timestamp": "2025-12-12T03:50:51.177526+00:00",
        "meta_object_name": "STARLINK-35951",
        "meta_object_id": "2025-271C",
        "meta_epoch": "2025-12-11T14:00:01.999872",
        "meta_mean_motion": 15.5490264,
        "meta_eccentricity": 0.00010109,
        "meta_inclination": 53.1601,
        "meta_ra_of_asc_node": 192.7685,
        "meta_arg_of_pericenter": 108.722,
        "meta_mean_anomaly": 1.3979,
        "meta_ephemeris_type": 0,
        "meta_classification_type": "U",
        "meta_norad_cat_id": 66619,
        "meta_element_set_no": 999,
        "meta_rev_at_epoch": 405,
        "meta_bstar": -0.033365809,
        "meta_mean_motion_dot": -0.02027247,
        "meta_mean_motion_ddot": 0,
        "tle_line1": "1 66619U 25271C   25345.58335648 -.02027247  00000+0 -33366-1 0  9993",
        "tle_line2": "2 66619  53.1601 192.7685 0001010 108.7220   1.3979 15.54902640  4050"
      },
      "geometry": {
        "type": "Point",
        "coordinates": [
          -65.30314603273028,
          52.220380824318696
        ]
      }
    },
    {
      "type": "Feature",
      "properties": {
        "norad_id": 66620,
        "name": "STARLINK-35936",
        "group": "last-30-days",
        "lat": 53.02226497299596,
        "lon": -74.69232989477104,
        "alt_km": 401.96698420175926,
        "timestamp": "2025-12-12T03:50:51.177536+00:00",
        "meta_object_name": "STARLINK-35936",
        "meta_object_id": "2025-271D",
        "meta_epoch": "2025-12-11T14:00:01.999872",
        "meta_mean_motion": 15.5490174,
        "meta_eccentricity": 8.815e-05,
        "meta_inclination": 53.16,
        "meta_ra_of_asc_node": 192.7819,
        "meta_arg_of_pericenter": 100.6675,
        "meta_mean_anomaly": 3.7033,
        "meta_ephemeris_type": 0,
        "meta_classification_type": "U",
        "meta_norad_cat_id": 66620,
        "meta_element_set_no": 999,
        "meta_rev_at_epoch": 405,
        "meta_bstar": -0.033353909,
        "meta_mean_motion_dot": -0.02026465,
        "meta_mean_motion_ddot": 0,
        "tle_line1": "1 66620U 25271D   25345.58335648 -.02026465  00000+0 -33354-1 0  9993",
        "tle_line2": "2 66620  53.1600 192.7819 0000881 100.6675   3.7033 15.54901740  4057"
      },
      "geometry": {
        "type": "Point",
        "coordinates": [
          -74.69232989477104,
          53.02226497299596
        ]
      }
    },
    {
      "type": "Feature",
      "properties": {
        "norad_id": 66621,
        "name": "STARLINK-35847",
        "group": "last-30-days",
        "lat": 24.920603775133753,
        "lon": -10.497187040191083,
        "alt_km": 406.3858134185066,
        "timestamp": "2025-12-12T03:50:51.177550+00:00",
        "meta_object_name": "STARLINK-35847",
        "meta_object_id": "2025-271E",
        "meta_epoch": "2025-12-11T14:00:01.999872",
        "meta_mean_motion": 15.54901197,
        "meta_eccentricity": 0.00012877,
        "meta_inclination": 53.1597,
        "meta_ra_of_asc_node": 192.666,
        "meta_arg_of_pericenter": 93.449,
        "meta_mean_anomaly": 65.8697,
        "meta_ephemeris_type": 0,
        "meta_classification_type": "U",
        "meta_norad_cat_id": 66621,
        "meta_element_set_no": 999,
        "meta_rev_at_epoch": 405,
        "meta_bstar": -0.033401726,
        "meta_mean_motion_dot": -0.02029267,
        "meta_mean_motion_ddot": 0,
        "tle_line1": "1 66621U 25271E   25345.58335648 -.02029267  00000+0 -33402-1 0  9991",
        "tle_line2": "2 66621  53.1597 192.6660 0001287  93.4490  65.8697 15.54901197  4052"
      },
      "geometry": {
        "type": "Point",
        "coordinates": [
          -10.497187040191083,
          24.920603775133753
        ]
      }
    },
    {
      "type": "Feature",
      "properties": {
        "norad_id": 66622,
        "name": "STARLINK-35950",
        "group": "last-30-days",
        "lat": 51.79031254105716,
        "lon": -62.26145081048911,
        "alt_km": 402.0367203485739,
        "timestamp": "2025-12-12T03:50:51.177561+00:00",
        "meta_object_name": "STARLINK-35950",
        "meta_object_id": "2025-271F",
        "meta_epoch": "2025-12-11T14:00:01.999872",
        "meta_mean_motion": 15.5490503,
        "meta_eccentricity": 0.00010373,
        "meta_inclination": 53.16,
        "meta_ra_of_asc_node": 192.7658,
        "meta_arg_of_pericenter": 86.8572,
        "meta_mean_anomaly": 25.1794,
        "meta_ephemeris_type": 0,
        "meta_classification_type": "U",
        "meta_norad_cat_id": 66622,
        "meta_element_set_no": 999,
        "meta_rev_at_epoch": 405,
        "meta_bstar": -0.033437491,
        "meta_mean_motion_dot": -0.02031315,
        "meta_mean_motion_ddot": 0,
        "tle_line1": "1 66622U 25271F   25345.58335648 -.02031315  00000+0 -33437-1 0  9997",
        "tle_line2": "2 66622  53.1600 192.7658 0001037  86.8572  25.1794 15.54905030  4053"
      },
      "geometry": {
        "type": "Point",
        "coordinates": [
          -62.26145081048911,
          51.79031254105716
        ]
      }
    },
    {
      "type": "Feature",
      "properties": {
        "norad_id": 66623,
        "name": "STARLINK-35920",
        "group": "last-30-days",
        "lat": 50.70493619023468,
        "lon": -56.38793656862694,
        "alt_km": 402.2493460175774,
        "timestamp": "2025-12-12T03:50:51.177570+00:00",
        "meta_object_name": "STARLINK-35920",
        "meta_object_id": "2025-271G",
        "meta_epoch": "2025-12-11T14:00:01.999872",
        "meta_mean_motion": 15.54901451,
        "meta_eccentricity": 9.179e-05,
        "meta_inclination": 53.1602,
        "meta_ra_of_asc_node": 192.7569,
        "meta_arg_of_pericenter": 104.8001,
        "meta_mean_anomaly": 11.0721,
        "meta_ephemeris_type": 0,
        "meta_classification_type": "U",
        "meta_norad_cat_id": 66623,
        "meta_element_set_no": 999,
        "meta_rev_at_epoch": 405,
        "meta_bstar": -0.033359869,
        "meta_mean_motion_dot": -0.0202679,
        "meta_mean_motion_ddot": 0,
        "tle_line1": "1 66623U 25271G   25345.58335648 -.02026790  00000+0 -33360-1 0  9994",
        "tle_line2": "2 66623  53.1602 192.7569 0000917 104.8001  11.0721 15.54901451  4058"
      },
      "geometry": {
        "type": "Point",
        "coordinates": [
          -56.38793656862694,
          50.70493619023468
        ]
      }
    },
    {
      "type": "Feature",
      "properties": {
        "norad_id": 66624,
        "name": "STARLINK-35927",
        "group": "last-30-days",
        "lat": 51.28405333178588,
        "lon": -59.28784034499695,
        "alt_km": 402.0694442482345,
        "timestamp": "2025-12-12T03:50:51.177580+00:00",
        "meta_object_name": "STARLINK-35927",
        "meta_object_id": "2025-271H",
        "meta_epoch": "2025-12-11T14:00:01.999872",
        "meta_mean_motion": 15.54900516,
        "meta_eccentricity": 0.00010456,
        "meta_inclination": 53.16,
        "meta_ra_of_asc_node": 192.7617,
        "meta_arg_of_pericenter": 97.6355,
        "meta_mean_anomaly": 16.319,
        "meta_ephemeris_type": 0,
        "meta_classification_type": "U",
        "meta_norad_cat_id": 66624,
        "meta_element_set_no": 999,
        "meta_rev_at_epoch": 405,
        "meta_bstar": -0.033318762,
        "meta_mean_motion_dot": -0.0202457,
        "meta_mean_motion_ddot": 0,
        "tle_line1": "1 66624U 25271H   25345.58335648 -.02024570  00000+0 -33319-1 0  9993",
        "tle_line2": "2 66624  53.1600 192.7617 0001045  97.6355  16.3190 15.54900516  4054"
      },
      "geometry": {
        "type": "Point",
        "coordinates": [
          -59.28784034499695,
          51.28405333178588
        ]
      }
    },
    {
      "type": "Feature",
      "properties": {
        "norad_id": 66625,
        "name": "STARLINK-35929",
        "group": "last-30-days",
        "lat": 50.05394705861891,
        "lon": -53.556775051424374,
        "alt_km": 402.3392901142688,
        "timestamp": "2025-12-12T03:50:51.177590+00:00",
        "meta_object_name": "STARLINK-35929",
        "meta_object_id": "2025-271J",
        "meta_epoch": "2025-12-11T14:00:01.999872",
        "meta_mean_motion": 15.54899048,
        "meta_eccentricity": 9.005e-05,
        "meta_inclination": 53.1602,
        "meta_ra_of_asc_node": 192.7531,
        "meta_arg_of_pericenter": 106.2732,
        "meta_mean_anomaly": 11.5151,
        "meta_ephemeris_type": 0,
        "meta_classification_type": "U",
        "meta_norad_cat_id": 66625,
        "meta_element_set_no": 999,
        "meta_rev_at_epoch": 405,
        "meta_bstar": -0.03326967,
        "meta_mean_motion_dot": -0.02021719,
        "meta_mean_motion_ddot": 0,
        "tle_line1": "1 66625U 25271J   25345.58335648 -.02021719  00000+0 -33270-1 0  9992",
        "tle_line2": "2 66625  53.1602 192.7531 0000900 106.2732  11.5151 15.54899048  4058"
      },
      "geometry": {
        "type": "Point",
        "coordinates": [
          -53.556775051424374,
          50.05394705861891
        ]
      }
    }
  ]
}